     3.02           N: GNSS NAV DATA    R: GLONASS          RINEX VERSION / TYPE
LgsRinex v1.7.8.0   SMO                 20180417 131059 UTC PGM / RUN BY / DATE
GLUT -4.6566128731D-09 0.000000000D+00      0    0          TIME SYSTEM CORR
    18    18  1929     7                                    LEAP SECONDS
                                                            END OF HEADER
R01 2018 04 17 01 15 00 2.491287887096D-05 0.000000000000D+00 1.764000000000D+05
    -1.772083691406D+04 1.426167488098D+00-3.725290298462D-09 0.000000000000D+00
     9.795321777344D+03-1.578266143799D+00-0.000000000000D+00 1.000000000000D+00
    -1.551852001953D+04-2.622296333313D+00 2.793967723846D-09 0.000000000000D+00
R02 2018 04 17 03 15 00 3.052121028304D-04 9.094947017729D-13 1.836000000000D+05
    -1.137900341797D+04 5.483455657959D-01-1.862645149231D-09 0.000000000000D+00
     1.249772607422D+04-2.562967300415D+00 9.313225746155D-10-4.000000000000D+00
    -1.904459863281D+04-2.009576797485D+00 3.725290298462D-09 0.000000000000D+00
R03 2018 04 17 04 45 00 1.296754926443D-04 0.000000000000D+00 1.890000000000D+05
    -6.294272949219D+03-5.123758316040D-01-9.313225746155D-10 0.000000000000D+00
     1.488934472656D+04-2.657720565796D+00 1.862645149231D-09 5.000000000000D+00
    -1.967547802734D+04-1.846979141235D+00 3.725290298462D-09 0.000000000000D+00
R04 2018 04 17 11 45 00 2.575218677521D-04 9.094947017729D-13 2.142000000000D+05
    -1.670252294922D+04 2.364869117737D+00-1.862645149231D-09 0.000000000000D+00
    -1.523697265625D+03-1.153494834900D+00-9.313225746155D-10 6.000000000000D+00
     1.924382031250D+04 1.961731910706D+00-2.793967723846D-09 0.000000000000D+00
R05 2018 04 17 11 45 00-2.848263829947D-04-6.366462912410D-12 2.142000000000D+05
    -2.299523730469D+04 7.187051773071D-01-2.793967723846D-09 0.000000000000D+00
     9.590185546875D+03-2.410554885864D-01-2.793967723846D-09 1.000000000000D+00
     5.445871093750D+03 3.457567214966D+00-1.862645149231D-09 0.000000000000D+00
R06 2018 04 17 11 45 00 1.307176426053D-04 9.094947017729D-13 2.142000000000D+05
    -1.538428857422D+04-1.509388923645D+00-2.793967723846D-09 0.000000000000D+00
     1.563310986328D+04 9.588785171509D-01-2.793967723846D-09-4.000000000000D+00
    -1.305300439453D+04 2.926091194153D+00 0.000000000000D+00 0.000000000000D+00
R07 2018 04 16 21 15 00-3.529898822308D-05-9.094947017729D-13 1.620000000000D+05
    -2.513610351563D+04-1.349248886108D-01-9.313225746155D-10 0.000000000000D+00
    -4.159260742188D+03 1.343240737915D-01-4.656612873077D-09 5.000000000000D+00
     8.316323242188D+02-3.568500518799D+00 9.313225746155D-10 0.000000000000D+00
R08 2018 04 16 23 15 00-1.377984881401D-05-0.000000000000D+00 1.692000000000D+05
    -2.392652685547D+04 9.974193572998D-01-3.725290298462D-09 0.000000000000D+00
     4.923996582031D+03-1.999206542969D-01-2.793967723846D-09 6.000000000000D+00
    -7.286651367188D+03-3.385005950928D+00 1.862645149231D-09 0.000000000000D+00
R09 2018 04 17 11 45 00 3.398209810257D-05-3.637978807092D-12 2.142000000000D+05
    -6.162558105469D+03 1.928539276123D-01-0.000000000000D+00 0.000000000000D+00
     2.240590527344D+04-1.424687385559D+00-2.793967723846D-09-2.000000000000D+00
    -1.043912548828D+04-3.174736976624D+00 9.313225746155D-10 0.000000000000D+00
R10 2018 04 17 11 45 00 2.266280353069D-05 0.000000000000D+00 2.142000000000D+05
     1.947920898438D+03 1.451997756958D-01 2.793967723846D-09 0.000000000000D+00
     2.443216845703D+04 9.595222473145D-01-1.862645149231D-09-7.000000000000D+00
     6.896201171875D+03-3.434112548828D+00-0.000000000000D+00 0.000000000000D+00
R11 2018 04 17 11 45 00-2.665072679520D-05-9.094947017729D-13 2.142000000000D+05
     9.278060546875D+03-6.450748443604D-02 4.656612873077D-09 0.000000000000D+00
     1.190202734375D+04 2.814370155334D+00 0.000000000000D+00 0.000000000000D+00
     2.056044384766D+04-1.604362487793D+00-9.313225746155D-10 0.000000000000D+00
R12 2018 04 17 01 45 00-3.009382635355D-05-0.000000000000D+00 1.782000000000D+05
    -1.391387744141D+04-1.390542030334D+00-3.725290298462D-09 0.000000000000D+00
    -5.729516113281D+03-2.458733558655D+00 1.862645149231D-09-1.000000000000D+00
     2.060515527344D+04-1.614596366882D+00-1.862645149231D-09 0.000000000000D+00
R13 2018 04 17 05 15 00-9.507872164249D-06-0.000000000000D+00 1.908000000000D+05
    -2.518984423828D+04-1.149864196777D-01 1.862645149231D-09 0.000000000000D+00
    -3.956520507813D+03 1.662502288818D-01 1.862645149231D-09-2.000000000000D+00
     6.014345703125D+02-3.578980445862D+00 0.000000000000D+00 0.000000000000D+00
R14 2018 04 17 07 15 00 2.640485763550D-05 0.000000000000D+00 1.980000000000D+05
    -2.387458154297D+04 1.039587974548D+00 2.793967723846D-09 0.000000000000D+00
     4.691793945313D+03-2.022142410278D-01-0.000000000000D+00-7.000000000000D+00
    -7.637351074219D+03-3.372318267822D+00 9.313225746155D-10 0.000000000000D+00
R15 2018 04 17 09 15 00-8.851289749146D-06 0.000000000000D+00 2.052000000000D+05
    -1.731369140625D+04 1.600873947144D+00 0.000000000000D+00 0.000000000000D+00
     8.432375976563D+03-1.652442932129D+00-2.793967723846D-09 0.000000000000D+00
    -1.678273193359D+04-2.472229957581D+00 9.313225746155D-10 0.000000000000D+00
R16 2018 04 17 11 15 00 9.044073522091D-05 9.094947017729D-13 2.124000000000D+05
    -1.135657421875D+04 5.125007629395D-01-1.862645149231D-09 0.000000000000D+00
     1.195979199219D+04-2.614702224731D+00-2.793967723846D-09-1.000000000000D+00
    -1.952892724609D+04-1.891526222229D+00 1.862645149231D-09 0.000000000000D+00
R17 2018 04 17 07 45 00 1.253727823496D-04 2.728484105319D-12 1.998000000000D+05
    -1.044220507813D+04 1.220159530640D-01 9.313225746155D-10 0.000000000000D+00
    -3.851291015625D+03-3.140830039978D+00-0.000000000000D+00 4.000000000000D+00
     2.296102392578D+04-4.738454818726D-01-2.793967723846D-09 0.000000000000D+00
R18 2018 04 17 09 45 00 1.921961084008D-04 9.094947017729D-13 2.070000000000D+05
    -1.389271093750D+04-1.381357192993D+00-9.313225746155D-10 0.000000000000D+00
    -6.531119140625D+03-2.427505493164D+00-1.862645149231D-09-3.000000000000D+00
     2.041007617188D+04-1.711965560913D+00-2.793967723846D-09 0.000000000000D+00
R19 2018 04 17 11 45 00-5.024392157793D-05-9.094947017729D-13 2.142000000000D+05
    -1.968273583984D+04-1.872376441956D+00-2.793967723846D-09 0.000000000000D+00
    -4.619888671875D+03-1.035545349121D+00-9.313225746155D-10 3.000000000000D+00
     1.556198632813D+04-2.675256729126D+00-2.793967723846D-09 0.000000000000D+00
R20 2018 04 17 11 45 00-3.346884623170D-04-9.094947017729D-13 2.142000000000D+05
    -5.897830078125D+03-2.653050422668D+00 9.313225746155D-10 0.000000000000D+00
     8.696318847656D+03-1.762762069702D+00-9.313225746155D-10 2.000000000000D+00
     2.325256152344D+04-8.410453796387D-03-2.793967723846D-09 0.000000000000D+00
R21 2018 04 17 11 45 00 2.043042331934D-05-1.818989403546D-12 2.142000000000D+05
     1.128860253906D+04-1.804269790649D+00 4.656612873077D-09 0.000000000000D+00
     1.603802294922D+04-1.329141616821D+00-0.000000000000D+00 4.000000000000D+00
     1.632224902344D+04 2.552845001221D+00-9.313225746155D-10 0.000000000000D+00
R22 2018 04 16 20 45 00-3.543775528669D-05-1.818989403546D-12 1.602000000000D+05
    -5.955381835938D+03-4.218645095825D-01 2.793967723846D-09 0.000000000000D+00
     1.520195019531D+04-2.658924102783D+00 1.862645149231D-09-3.000000000000D+00
    -1.964299316406D+04-1.916654586792D+00 9.313225746155D-10 0.000000000000D+00
R23 2018 04 17 04 45 00 1.481911167502D-04 1.818989403546D-12 1.890000000000D+05
    -8.691448730469D+03 2.365890502930D+00 0.000000000000D+00 0.000000000000D+00
    -6.311762207031D+03-2.113067626953D+00 9.313225746155D-10 3.000000000000D+00
     2.313097167969D+04 3.133449554443D-01-2.793967723846D-09 0.000000000000D+00
R24 2018 04 17 06 15 00-1.651076599956D-04-0.000000000000D+00 1.944000000000D+05
    -9.092677246094D+03 1.355083465576D+00 9.313225746155D-10 0.000000000000D+00
    -5.408082031250D+03-2.882141113281D+00 0.000000000000D+00 2.000000000000D+00
     2.318973583984D+04-1.385478973389D-01-2.793967723846D-09 0.000000000000D+00
R06 2018 04 17 12 15 00 1.307185739279D-04 9.094947017729D-13 2.160000000000D+05
    -1.740112597656D+04-7.315435409546D-01-3.725290298462D-09 0.000000000000D+00
     1.716551660156D+04 7.010574340820D-01-2.793967723846D-09-4.000000000000D+00
    -7.350234375000D+03 3.369248390198D+00-0.000000000000D+00 0.000000000000D+00
R20 2018 04 17 12 15 00-3.346912562847D-04-9.094947017729D-13 2.160000000000D+05
    -1.082753662109D+04-2.775926589966D+00-9.313225746155D-10 0.000000000000D+00
     5.932656250000D+03-1.287031173706D+00-9.313225746155D-10 2.000000000000D+00
     2.234007128906D+04-9.987401962280D-01-2.793967723846D-09 0.000000000000D+00
R05 2018 04 17 12 15 00-2.848394215107D-04-6.366462912410D-12 2.160000000000D+05
    -2.112086181641D+04 1.327771186829D+00-2.793967723846D-09 0.000000000000D+00
     8.650390136719D+03-8.246059417725D-01-1.862645149231D-09 1.000000000000D+00
     1.137833154297D+04 3.091221809387D+00-2.793967723846D-09 0.000000000000D+00
R10 2018 04 17 12 15 00 2.266373485327D-05 0.000000000000D+00 2.160000000000D+05
     2.303409179688D+03 2.082748413086D-01 1.862645149231D-09 0.000000000000D+00
     2.535635986328D+04 5.945205688477D-02-2.793967723846D-09-7.000000000000D+00
     5.270302734375D+02-3.596525192261D+00 0.000000000000D+00 0.000000000000D+00
R21 2018 04 17 12 15 00 2.042949199677D-05-1.818989403546D-12 2.160000000000D+05
     7.421434082031D+03-2.468020439148D+00 3.725290298462D-09 0.000000000000D+00
     1.366595458984D+04-1.264044761658D+00-9.313225746155D-10 4.000000000000D+00
     2.022764160156D+04 1.758321762085D+00-1.862645149231D-09 0.000000000000D+00
